{"type": "FeatureCollection", "features": [ {"type": "Feature", "properties": {"norad_id": 66687, "name": "TRANSPORTER-15 X", "group": "last-30-days", "lat": -59.48293350638949, "lon": 80.54144040003872, "alt_km": 525.679676422722, "timestamp": "2025-12-22T04:03:37.886521+00:00", "meta": {"OBJECT_NAME": "TRANSPORTER-15 X", "OBJECT_ID": "2025-276X", "EPOCH": "2025-12-21T18:49:32.040768", "MEAN_MOTION": 15.16670695, "ECCENTRICITY": 0.0008309, "INCLINATION": 97.4392, "RA_OF_ASC_NODE": 67.3567, "ARG_OF_PERICENTER": 58.4647, "MEAN_ANOMALY": 301.7396, "EPHEMERIS_TYPE": 0, "CLASSIFICATION_TYPE": "U", "NORAD_CAT_ID": 66687, "ELEMENT_SET_NO": 999, "REV_AT_EPOCH": 349, "BSTAR": 0.00061473, "MEAN_MOTION_DOT": 0.00011988, "MEAN_MOTION_DDOT": 0}, "tle": {"line1": "1 66687U 25276X   25355.78439862  .00011988  00000+0  61473-3 0  9992", "line2": "2 66687  97.4392  67.3567 0008309  58.4647 301.7396 15.16670695  3498"}}, "geometry": {"type": "Point", "coordinates": [80.54144040003872, -59.48293350638949]}}, {"type": "Feature", "properties": {"norad_id": 66688, "name": "TRANSPORTER-15 Y", "group": "last-30-days", "lat": -26.699221222205413, "lon": 71.53374531356293, "alt_km": 520.1332113864701, "timestamp": "2025-12-22T04:03:37.886531+00:00", "meta": {"OBJECT_NAME": "TRANSPORTER-15 Y", "OBJECT_ID": "2025-276Y", "EPOCH": "2025-12-21T18:40:51.575808", "MEAN_MOTION": 15.1706281, "ECCENTRICITY": 0.0003629, "INCLINATION": 97.4437, "RA_OF_ASC_NODE": 67.3797, "ARG_OF_PERICENTER": 253.1367, "MEAN_ANOMALY": 106.9469, "EPHEMERIS_TYPE": 0, "CLASSIFICATION_TYPE": "U", "NORAD_CAT_ID": 66688, "ELEMENT_SET_NO": 999, "REV_AT_EPOCH": 349, "BSTAR": 0.00038144, "MEAN_MOTION_DOT": 7.487e-05, "MEAN_MOTION_DDOT": 0}, "tle": {"line1": "1 66688U 25276Y   25355.77837472  .00007487  00000+0  38144-3 0  9999", "line2": "2 66688  97.4437  67.3797 0003629 253.1367 106.9469 15.17062810  3498"}}, "geometry": {"type": "Point", "coordinates": [71.53374531356293, -26.699221222205413]}}, {"type": "Feature", "properties": {"norad_id": 66689, "name": "TRANSPORTER-15 Z", "group": "last-30-days", "lat": -8.908289015423584, "lon": 68.94161526105846, "alt_km": 518.1467034181906, "timestamp": "2025-12-22T04:03:37.886541+00:00", "meta": {"OBJECT_NAME": "TRANSPORTER-15 Z", "OBJECT_ID": "2025-276Z", "EPOCH": "2025-12-21T10:41:18.481056", "MEAN_MOTION": 15.17195818, "ECCENTRICITY": 0.0001372, "INCLINATION": 97.4421, "RA_OF_ASC_NODE": 67.0567, "ARG_OF_PERICENTER": 282.9898, "MEAN_ANOMALY": 77.1182, "EPHEMERIS_TYPE": 0, "CLASSIFICATION_TYPE": "U", "NORAD_CAT_ID": 66689, "ELEMENT_SET_NO": 999, "REV_AT_EPOCH": 344, "BSTAR": 0.0003197, "MEAN_MOTION_DOT": 6.287e-05, "MEAN_MOTION_DDOT": 0}, "tle": {"line1": "1 66689U 25276Z   25355.44535279  .00006287  00000+0  31970-3 0  9991", "line2": "2 66689  97.4421  67.0567 0001372 282.9898  77.1182 15.17195818  3447"}}, "geometry": {"type": "Point", "coordinates": [68.94161526105846, -8.908289015423584]}}, {"type": "Feature", "properties": {"norad_id": 66690, "name": "TRANSPORTER-15 AA", "group": "last-30-days", "lat": -26.984945432669466, "lon": 71.56754489455845, "alt_km": 520.2141301110078, "timestamp": "2025-12-22T04:03:37.886551+00:00", "meta": {"OBJECT_NAME": "TRANSPORTER-15 AA", "OBJECT_ID": "2025-276AA", "EPOCH": "2025-12-21T18:40:55.704864", "MEAN_MOTION": 15.17043444, "ECCENTRICITY": 0.0003593, "INCLINATION": 97.4399, "RA_OF_ASC_NODE": 67.3687, "ARG_OF_PERICENTER": 252.9568, "MEAN_ANOMALY": 107.1272, "EPHEMERIS_TYPE": 0, "CLASSIFICATION_TYPE": "U", "NORAD_CAT_ID": 66690, "ELEMENT_SET_NO": 999, "REV_AT_EPOCH": 349, "BSTAR": 0.00032714, "MEAN_MOTION_DOT": 6.408e-05, "MEAN_MOTION_DDOT": 0}, "tle": {"line1": "1 66690U 25276AA  25355.77842251  .00006408  00000+0  32714-3 0  9992", "line2": "2 66690  97.4399  67.3687 0003593 252.9568 107.1272 15.17043444  3493"}}, "geometry": {"type": "Point", "coordinates": [71.56754489455845, -26.984945432669466]}}, {"type": "Feature", "properties": {"norad_id": 66691, "name": "TRANSPORTER-15 AB", "group": "last-30-days", "lat": -16.744760174125137, "lon": 70.0175428391429, "alt_km": 519.0509902053764, "timestamp": "2025-12-22T04:03:37.886561+00:00", "meta": {"OBJECT_NAME": "TRANSPORTER-15 AB", "OBJECT_ID": "2025-276AB", "EPOCH": "2025-12-21T18:38:16.976832", "MEAN_MOTION": 15.17270049, "ECCENTRICITY": 0.0003703, "INCLINATION": 97.4424, "RA_OF_ASC_NODE": 67.3779, "ARG_OF_PERICENTER": 254.5474, "MEAN_ANOMALY": 105.535, "EPHEMERIS_TYPE": 0, "CLASSIFICATION_TYPE": "U", "NORAD_CAT_ID": 66691, "ELEMENT_SET_NO": 999, "REV_AT_EPOCH": 349, "BSTAR": 0.00046573, "MEAN_MOTION_DOT": 9.213e-05, "MEAN_MOTION_DDOT": 0}, "tle": {"line1": "1 66691U 25276AB  25355.77658538  .00009213  00000+0  46573-3 0  9991", "line2": "2 66691  97.4424  67.3779 0003703 254.5474 105.5350 15.17270049  3494"}}, "geometry": {"type": "Point", "coordinates": [70.0175428391429, -16.744760174125137]}}, {"type": "Feature", "properties": {"norad_id": 66692, "name": "TRANSPORTER-15 AC", "group": "last-30-days", "lat": -0.7519450519528297, "lon": 67.87268067735661, "alt_km": 519.3930828098901, "timestamp": "2025-12-22T04:03:37.886571+00:00", "meta": {"OBJECT_NAME": "TRANSPORTER-15 AC", "OBJECT_ID": "2025-276AC", "EPOCH": "2025-12-21T18:33:56.289888", "MEAN_MOTION": 15.17114883, "ECCENTRICITY": 0.0001987, "INCLINATION": 97.4425, "RA_OF_ASC_NODE": 67.3859, "ARG_OF_PERICENTER": 209.7052, "MEAN_ANOMALY": 150.4069, "EPHEMERIS_TYPE": 0, "CLASSIFICATION_TYPE": "U", "NORAD_CAT_ID": 66692, "ELEMENT_SET_NO": 999, "REV_AT_EPOCH": 349, "BSTAR": -0.0096276, "MEAN_MOTION_DOT": -0.00186003, "MEAN_MOTION_DDOT": 0}, "tle": {"line1": "1 66692U 25276AC  25355.77356817 -.00186003  00000+0 -96276-2 0  9996", "line2": "2 66692  97.4425  67.3859 0001987 209.7052 150.4069 15.17114883  3490"}}, "geometry": {"type": "Point", "coordinates": [67.87268067735661, -0.7519450519528297]}}, {"type": "Feature", "properties": {"norad_id": 66693, "name": "TRANSPORTER-15 AD", "group": "last-30-days", "lat": -1.0437167173834316, "lon": 67.8916365179233, "alt_km": 516.0056567167449, "timestamp": "2025-12-22T04:03:37.886583+00:00", "meta": {"OBJECT_NAME": "TRANSPORTER-15 AD", "OBJECT_ID": "2025-276AD", "EPOCH": "2025-12-21T18:34:12.965088", "MEAN_MOTION": 15.17568273, "ECCENTRICITY": 0.0003286, "INCLINATION": 97.4379, "RA_OF_ASC_NODE": 67.3669, "ARG_OF_PERICENTER": 280.0271, "MEAN_ANOMALY": 80.0591, "EPHEMERIS_TYPE": 0, "CLASSIFICATION_TYPE": "U", "NORAD_CAT_ID": 66693, "ELEMENT_SET_NO": 999, "REV_AT_EPOCH": 349, "BSTAR": 0.00063597, "MEAN_MOTION_DOT": 0.00012719, "MEAN_MOTION_DDOT": 0}, "tle": {"line1": "1 66693U 25276AD  25355.77376117  .00012719  00000+0  63597-3 0  9993", "line2": "2 66693  97.4379  67.3669 0003286 280.0271  80.0591 15.17568273  3491"}}, "geometry": {"type": "Point", "coordinates": [67.8916365179233, -1.0437167173834316]}}, {"type": "Feature", "properties": {"norad_id": 66694, "name": "YAM-9", "group": "last-30-days", "lat": 8.762679603235602, "lon": 66.61918753674439, "alt_km": 515.3246645621866, "timestamp": "2025-12-22T04:03:37.886595+00:00", "meta": {"OBJECT_NAME": "YAM-9", "OBJECT_ID": "2025-276AE", "EPOCH": "2025-12-21T18:31:35.812992", "MEAN_MOTION": 15.17538635, "ECCENTRICITY": 0.0001429, "INCLINATION": 97.4417, "RA_OF_ASC_NODE": 67.3833, "ARG_OF_PERICENTER": 268.9826, "MEAN_ANOMALY": 91.1244, "EPHEMERIS_TYPE": 0, "CLASSIFICATION_TYPE": "U", "NORAD_CAT_ID": 66694, "ELEMENT_SET_NO": 999, "REV_AT_EPOCH": 349, "BSTAR": 0.00049549, "MEAN_MOTION_DOT": 9.882e-05, "MEAN_MOTION_DDOT": 0}, "tle": {"line1": "1 66694U 25276AE  25355.77194228  .00009882  00000+0  49549-3 0  9993", "line2": "2 66694  97.4417  67.3833 0001429 268.9826  91.1244 15.17538635  3493"}}, "geometry": {"type": "Point", "coordinates": [66.61918753674439, 8.762679603235602]}}, {"type": "Feature", "properties": {"norad_id": 66695, "name": "IRIDE FM1", "group": "last-30-days", "lat": 63.695359903012424, "lon": 52.462213565130575, "alt_km": 504.8598568312573, "timestamp": "2025-12-22T04:03:37.886605+00:00", "meta": {"OBJECT_NAME": "IRIDE FM1", "OBJECT_ID": "2025-276AF", "EPOCH": "2025-12-21T19:52:03.387072", "MEAN_MOTION": 15.18233992, "ECCENTRICITY": 0.0001258, "INCLINATION": 97.4407, "RA_OF_ASC_NODE": 67.4565, "ARG_OF_PERICENTER": 148.4845, "MEAN_ANOMALY": 211.6464, "EPHEMERIS_TYPE": 0, "CLASSIFICATION_TYPE": "U", "NORAD_CAT_ID": 66695, "ELEMENT_SET_NO": 999, "REV_AT_EPOCH": 350, "BSTAR": 0.00052185, "MEAN_MOTION_DOT": 0.00010622, "MEAN_MOTION_DDOT": 0}, "tle": {"line1": "1 66695U 25276AF  25355.82781698  .00010622  00000+0  52185-3 0  9997", "line2": "2 66695  97.4407  67.4565 0001258 148.4845 211.6464 15.18233992  3503"}}, "geometry": {"type": "Point", "coordinates": [52.462213565130575, 63.695359903012424]}}, {"type": "Feature", "properties": {"norad_id": 66696, "name": "IRIDE FM2", "group": "last-30-days", "lat": -4.27114244962203, "lon": 68.31835053570094, "alt_km": 513.664053331956, "timestamp": "2025-12-22T04:03:37.886615+00:00", "meta": {"OBJECT_NAME": "IRIDE FM2", "OBJECT_ID": "2025-276AG", "EPOCH": "2025-12-21T18:34:59.863872", "MEAN_MOTION": 15.17369038, "ECCENTRICITY": 0.0005677, "INCLINATION": 97.4395, "RA_OF_ASC_NODE": 67.3714, "ARG_OF_PERICENTER": 340.4276, "MEAN_ANOMALY": 19.6738, "EPHEMERIS_TYPE": 0, "CLASSIFICATION_TYPE": "U", "NORAD_CAT_ID": 66696, "ELEMENT_SET_NO": 999, "REV_AT_EPOCH": 349, "BSTAR": 0.00020021, "MEAN_MOTION_DOT": 3.932e-05, "MEAN_MOTION_DDOT": 0}, "tle": {"line1": "1 66696U 25276AG  25355.77430398  .00003932  00000+0  20021-3 0  9990", "line2": "2 66696  97.4395  67.3714 0005677 340.4276  19.6738 15.17369038  3494"}}, "geometry": {"type": "Point", "coordinates": [68.31835053570094, -4.27114244962203]}}]}